NORAD_CAT_ID,OBJECT_NAME,OBJECT_TYPE,EPOCH,MEAN_MOTION,ECCENTRICITY,INCLINATION,RA_OF_ASC_NODE,ARG_OF_PERICENTER,MEAN_ANOMALY,BSTAR,MEAN_MOTION_DOT,MEAN_MOTION_DDOT,TLE_LINE0,TLE_LINE1,TLE_LINE2,SEMIMAJOR_AXIS,PERIOD,APOGEE,PERIGEE,DECAYED
52378.0,STARLINK-3806,PAYLOAD,2023-10-18 21:24:51,15.08846283,0.0002228,53.212,147.2628,92.5574,267.5673,-4.7875e-05,-1.05e-05,0.0,0 STARLINK-3806,1 52378U 22045AZ  23291.89226177 -.00001050  00000-0 -47875-4 0  9990,2 52378  53.2120 147.2628 0002228  92.5574 267.5673 15.08846283 84166,6917.861,95.437,541.267,538.185,0.0
52378.0,STARLINK-3806,PAYLOAD,2023-10-19 00:35:37,15.08890859,0.0001707,53.2142,146.6682,83.9501,276.1685,-0.00067535,-0.00011035,0.0,0 STARLINK-3806,1 52378U 22045AZ  23292.02473414 -.00011035  00000-0 -67535-3 0  9992,2 52378  53.2142 146.6682 0001707  83.9501 276.1685 15.08890859 84187,6917.725,95.434,540.771,538.409,0.0
52378.0,STARLINK-3806,PAYLOAD,2023-10-19 14:54:05,15.08844087,0.0001688,53.2173,143.9926,95.0886,265.0299,0.00017733,2.536e-05,0.0,0 STARLINK-3806,1 52378U 22045AZ  23292.62090024  .00002536  00000-0  17733-3 0  9999,2 52378  53.2173 143.9926 0001688  95.0886 265.0299 15.08844087 84270,6917.868,95.437,540.901,538.565,0.0
52378.0,STARLINK-3806,PAYLOAD,2023-10-19 21:15:37,15.08852703,0.0001721,53.2147,142.8026,98.8185,261.3002,0.00027437,4.083e-05,0.0,0 STARLINK-3806,1 52378U 22045AZ  23292.88585526  .00004083  00000-0  27437-3 0  9994,2 52378  53.2147 142.8026 0001721  98.8185 261.3002 15.08852703 84311,6917.842,95.437,540.897,538.516,0.0
52378.0,STARLINK-3806,PAYLOAD,2023-10-20 13:09:30,15.08835526,0.0001933,53.2165,139.8269,88.6145,271.5069,-2.7027e-05,-7.18e-06,0.0,0 STARLINK-3806,1 52378U 22045AZ  23293.54826431 -.00000718  00000-0 -27027-4 0  9990,2 52378  53.2165 139.8269 0001933  88.6145 271.5069 15.08835526 84415,6917.894,95.438,541.096,538.422,0.0
52378.0,STARLINK-3806,PAYLOAD,2023-10-20 14:44:53,15.08833999,0.0001734,53.2154,139.5283,86.3068,273.8123,-4.7514e-05,-1.044e-05,0.0,0 STARLINK-3806,1 52378U 22045AZ  23293.61450519 -.00001044  00000-0 -47514-4 0  9994,2 52378  53.2154 139.5283 0001734  86.3068 273.8123 15.08833999 84423,6917.899,95.438,540.963,538.564,0.0
52378.0,STARLINK-3806,PAYLOAD,2023-10-20 21:06:26,15.0882843,0.0001451,53.2157,138.3411,85.1592,274.9566,-9.5728e-05,-1.811e-05,0.0,0 STARLINK-3806,1 52378U 22045AZ  23293.87946962 -.00001811  00000-0 -95728-4 0  9996,2 52378  53.2157 138.3411 0001451  85.1592 274.9566 15.08828430 84462,6917.916,95.438,540.785,538.777,0.0
52378.0,STARLINK-3806,PAYLOAD,2023-10-21 06:38:44,15.08836678,0.0001472,53.2157,136.5566,85.4208,274.6953,5.1589e-05,5.33e-06,0.0,0 STARLINK-3806,1 52378U 22045AZ  23294.27690811  .00000533  00000-0  51589-4 0  9995,2 52378  53.2157 136.5566 0001472  85.4208 274.6953 15.08836678 84520,6917.891,95.438,540.774,538.737,0.0
52378.0,STARLINK-3806,PAYLOAD,2023-10-21 16:11:03,15.08841699,0.0001453,53.2157,134.7719,89.5596,270.5562,0.00014614,2.039e-05,0.0,0 STARLINK-3806,1 52378U 22045AZ  23294.67434550  .00002039  00000-0  14614-3 0  9995,2 52378  53.2157 134.7719 0001453  89.5596 270.5562 15.08841699 84580,6917.875,95.437,540.745,538.735,0.0
52378.0,STARLINK-3806,PAYLOAD,2023-10-21 22:32:36,15.08846504,0.0001586,53.2158,133.5813,82.2112,277.906,0.00040341,6.139e-05,0.0,0 STARLINK-3806,1 52378U 22045AZ  23294.93930592  .00006139  00000-0  40341-3 0  9992,2 52378  53.2158 133.5813 0001586  82.2112 277.9060 15.08846504 84623,6917.861,95.437,540.823,538.628,0.0
52378.0,STARLINK-3806,PAYLOAD,2023-10-22 12:51:04,15.08832318,0.0001865,53.215,130.9076,78.5836,281.5366,0.00010228,1.34e-05,0.0,0 STARLINK-3806,1 52378U 22045AZ  23295.53547418  .00001340  00000-0  10228-3 0  9990,2 52378  53.2150 130.9076 0001865  78.5836 281.5366 15.08832318 84716,6917.904,95.438,541.059,538.479,0.0
52378.0,STARLINK-3806,PAYLOAD,2023-10-22 20:48:01,15.08831635,0.0001568,53.2153,129.4199,80.1347,279.9822,0.00017847,2.553e-05,0.0,0 STARLINK-3806,1 52378U 22045AZ  23295.86667838  .00002553  00000-0  17847-3 0  9996,2 52378  53.2153 129.4199 0001568  80.1347 279.9822 15.08831635 84768,6917.906,95.438,540.856,538.686,0.0
52378.0,STARLINK-3806,PAYLOAD,2023-10-23 19:03:24,15.08847071,0.0001591,53.2162,125.2562,77.9316,282.1854,6.4878e-05,7.45e-06,0.0,0 STARLINK-3806,1 52378U 22045AZ  23296.79403087  .00000745  00000-0  64878-4 0  9991,2 52378  53.2162 125.2562 0001591  77.9316 282.1854 15.08847071 84900,6917.859,95.437,540.824,538.623,0.0
52378.0,STARLINK-3806,PAYLOAD,2023-10-23 20:38:47,15.0884771,0.0001593,53.2162,124.9588,77.7891,282.328,6.8348e-05,8e-06,0.0,0 STARLINK-3806,1 52378U 22045AZ  23296.86027007  .00000800  00000-0  68348-4 0  9991,2 52378  53.2162 124.9588 0001593  77.7891 282.3280 15.08847710 84918,6917.857,95.437,540.824,538.62,0.0
52378.0,STARLINK-3806,PAYLOAD,2023-10-24 12:32:39,15.08829531,0.0001596,53.2163,121.9851,77.7575,282.3595,8.6914e-05,1.095e-05,0.0,0 STARLINK-3806,1 52378U 22045AZ  23297.52268043  .00001095  00000-0  86914-4 0  9998,2 52378  53.2163 121.9851 0001596  77.7575 282.3595 15.08829531 85013,6917.912,95.438,540.881,538.673,0.0
52378.0,STARLINK-3806,PAYLOAD,2023-10-24 14:08:02,15.08830421,0.0001599,53.2163,121.6877,77.7567,282.3604,9.3054e-05,1.193e-05,0.0,0 STARLINK-3806,1 52378U 22045AZ  23297.58892019  .00001193  00000-0  93054-4 0  9992,2 52378  53.2163 121.6877 0001599  77.7567 282.3604 15.08830421 85024,6917.91,95.438,540.881,538.668,0.0
52378.0,STARLINK-3806,PAYLOAD,2023-10-25 13:58:48,15.08846492,0.0001631,53.2165,117.2271,77.6837,282.4338,0.00011303,1.512e-05,0.0,0 STARLINK-3806,1 52378U 22045AZ  23298.58251051  .00001512  00000-0  11303-3 0  9999,2 52378  53.2165 117.2271 0001631  77.6837 282.4338 15.08846492 85177,6917.861,95.437,540.854,538.597,0.0
52378.0,STARLINK-3806,PAYLOAD,2023-10-26 12:14:12,15.0884471,0.0001911,53.2166,113.0642,66.649,293.4703,-5.9262e-05,-1.231e-05,0.0,0 STARLINK-3806,1 52378U 22045AZ  23299.50987268 -.00001231  00000-0 -59262-4 0  9995,2 52378  53.2166 113.0642 0001911  66.6490 293.4703 15.08844710 85313,6917.866,95.437,541.053,538.409,0.0
52378.0,STARLINK-3806,PAYLOAD,2023-10-26 21:46:31,15.08845753,0.0001668,53.2167,111.28,77.1778,282.94,0.00011563,1.553e-05,0.0,0 STARLINK-3806,1 52378U 22045AZ  23299.90730748  .00001553  00000-0  11563-3 0  9994,2 52378  53.2167 111.2800 0001668  77.1778 282.9400 15.08845753 85376,6917.863,95.437,540.882,538.574,0.0
52378.0,STARLINK-3806,PAYLOAD,2023-10-27 12:04:59,15.08845085,0.0001659,53.2169,108.6035,82.7686,277.3495,1.1412e-05,-1.06e-06,0.0,0 STARLINK-3806,1 52378U 22045AZ  23300.50346923 -.00000106  00000-0  11412-4 0  9999,2 52378  53.2169 108.6035 0001659  82.7686 277.3495 15.08845085 85468,6917.865,95.437,540.878,538.582,0.0
52378.0,STARLINK-3806,PAYLOAD,2023-10-27 20:01:54,15.08849876,0.0001642,53.2169,107.1171,79.6429,280.4749,5.2818e-05,5.53e-06,0.0,0 STARLINK-3806,1 52378U 22045AZ  23300.83466414  .00000553  00000-0  52818-4 0  9993,2 52378  53.2169 107.1171 0001642  79.6429 280.4749 15.08849876 85510,6917.85,95.437,540.851,538.579,0.0
52378.0,STARLINK-3806,PAYLOAD,2023-10-28 11:55:47,15.08829597,0.0001625,53.2168,104.143,80.963,279.1546,-5.3305e-05,-1.136e-05,0.0,0 STARLINK-3806,1 52378U 22045AZ  23301.49708072 -.00001136  00000-0 -53305-4 0  9997,2 52378  53.2168 104.1430 0001625  80.9630 279.1546 15.08829597 85613,6917.912,95.438,540.901,538.653,0.0
52378.0,STARLINK-3806,PAYLOAD,2023-10-28 21:28:06,15.08836748,0.0001672,53.217,102.359,84.4407,275.6776,2.8938e-06,-2.42e-06,0.0,0 STARLINK-3806,1 52378U 22045AZ  23301.89451565 -.00000242  00000-0  28938-5 0  9994,2 52378  53.2170 102.3590 0001672  84.4407 275.6776 15.08836748 85674,6917.89,95.438,540.912,538.599,0.0
52378.0,STARLINK-3806,PAYLOAD,2023-10-29 03:49:38,15.08852545,0.0001643,53.2171,101.1696,80.8725,279.2452,-0.00017465,-3.068e-05,0.0,0 STARLINK-3806,1 52378U 22045AZ  23302.15946968 -.00003068  00000-0 -17465-3 0  9991,2 52378  53.2171 101.1696 0001643  80.8725 279.2452 15.08852545 85719,6917.842,95.437,540.844,538.57,0.0
52378.0,STARLINK-3806,PAYLOAD,2023-10-29 19:43:29,15.08851287,0.0001524,53.2184,98.1958,82.7079,277.4086,0.00011545,1.55e-05,0.0,0 STARLINK-3806,1 52378U 22045AZ  23302.82186450  .00001550  00000-0  11545-3 0  9992,2 52378  53.2184  98.1958 0001524  82.7079 277.4086 15.08851287 85816,6917.846,95.437,540.765,538.657,0.0
52378.0,STARLINK-3806,PAYLOAD,2023-10-30 10:01:58,15.08832299,0.00017,53.2181,95.5193,86.7106,273.4081,0.00013957,1.933e-05,0.0,0 STARLINK-3806,1 52378U 22045AZ  23303.41803889  .00001933  00000-0  13957-3 0  9994,2 52378  53.2181  95.5193 0001700  86.7106 273.4081 15.08832299 85909,6917.904,95.438,540.945,538.593,0.0
52378.0,STARLINK-3806,PAYLOAD,2023-10-30 19:34:17,15.08837233,0.0001616,53.2165,93.7346,82.5004,277.6172,0.00011714,1.577e-05,0.0,0 STARLINK-3806,1 52378U 22045AZ  23303.81547712  .00001577  00000-0  11714-3 0  9991,2 52378  53.2165  93.7346 0001616  82.5004 277.6172 15.08837233 85964,6917.889,95.438,540.872,538.636,0.0
52378.0,STARLINK-3806,PAYLOAD,2023-10-31 14:38:54,15.08843366,0.0001672,53.2166,90.1678,78.835,281.2831,0.00012449,1.694e-05,0.0,0 STARLINK-3806,1 52378U 22045AZ  23304.61035610  .00001694  00000-0  12449-3 0  9995,2 52378  53.2166  90.1678 0001672  78.8350 281.2831 15.08843366 86089,6917.87,95.437,540.892,538.578,0.0
52378.0,STARLINK-3806,PAYLOAD,2023-10-31 19:25:03,15.08849608,0.0001523,53.2168,89.2731,86.9594,273.1572,0.00015478,2.177e-05,0.0,0 STARLINK-3806,1 52378U 22045AZ  23304.80907183  .00002177  00000-0  15478-3 0  9991,2 52378  53.2168  89.2731 0001523  86.9594 273.1572 15.08849608 86116,6917.851,95.437,540.77,538.662,0.0
52378.0,STARLINK-3806,PAYLOAD,2023-11-01 03:21:59,15.08842962,0.0001567,53.217,87.7851,88.2524,271.8647,0.0001735,2.475e-05,0.0,0 STARLINK-3806,1 52378U 22045AZ  23305.14027531  .00002475  00000-0  17350-3 0  9991,2 52378  53.2170  87.7851 0001567  88.2524 271.8647 15.08842962 86160,6917.871,95.437,540.82,538.652,0.0
